MALLIGYONG-1            
1 58400U 23179A   24018.61966674  .00009003  00000+0  39591-3 0  9990
2 58400  97.4243 267.6356 0017659  75.7347 284.5849 15.21969629  8822
